GLOBALSTAR M045         
1 25676U 99019A   25329.08521066 -.00000065  00000+0  25317-3 0  9995
2 25676  51.9952 206.6734 0001059  84.0891  82.4958 12.27068849213146
GLOBALSTAR M019         
1 25677U 99019B   25329.07430946 -.00000201  00000+0 -11559-2 0  9996
2 25677  51.9900 348.3920 0001139 285.3212 106.1635 12.13877921204682
GLOBALSTAR M044         
1 25678U 99019C   25328.68800457 -.00000068  00000+0  21369-3 0  9992
2 25678  51.9988 320.9051 0006298 350.5159 181.5143 11.90259888190434
GLOBALSTAR M042         
1 25679U 99019D   25329.01897978 -.00000040  00000+0  49409-3 0  9990
2 25679  52.0030 316.9186 0002846 275.4829 122.6663 12.22091741204924
GLOBALSTAR M025         
1 25770U 99031A   25328.96961640 -.00000078  00000+0 -32181-3 0  9998
2 25770  51.9769 146.8057 0003172  67.0932 103.2204 11.22558514499762
GLOBALSTAR M049         
1 25771U 99031B   25328.96712583  .00000006  00000+0  24744-2 0  9993
2 25771  51.9842 189.6569 0001955 306.4633  53.5983 11.12123226135319
GLOBALSTAR M047         
1 25772U 99031C   25329.04563610 -.00000079  00000+0 -26533-3 0  9990
2 25772  51.9790 171.0789 0016320 174.4646 185.6343 11.31931523489328
GLOBALSTAR M052         
1 25773U 99031D   25329.14447728 -.00000094  00000+0 -94181-3 0  9994
2 25773  51.9882 295.6642 0002921  70.9777  11.5241 11.15061898496467
